[{"OBJECT_NAME":"STARLINK-35748","OBJECT_ID":"2025-244A","EPOCH":"2026-03-09T17:14:45.170304","MEAN_MOTION":15.30162555,"ECCENTRICITY":0.00019927,"INCLINATION":53.1589,"RA_OF_ASC_NODE":229.8013,"ARG_OF_PERICENTER":158.7664,"MEAN_ANOMALY":201.342,"EPHEMERIS_TYPE":0,"CLASSIFICATION_TYPE":"U","NORAD_CAT_ID":66206,"ELEMENT_SET_NO":999,"REV_AT_EPOCH":2166,"BSTAR":0.00060299912,"MEAN_MOTION_DOT":0.00017522,"MEAN_MOTION_DDOT":0},{"OBJECT_NAME":"COSMOS 2251 DEB","OBJECT_ID":"1993-036BTX","EPOCH":"2026-02-28T17:34:44.973408","MEAN_MOTION":15.25753352,"ECCENTRICITY":0.00216382,"INCLINATION":73.9681,"RA_OF_ASC_NODE":229.3494,"ARG_OF_PERICENTER":13.6287,"MEAN_ANOMALY":346.5492,"EPHEMERIS_TYPE":0,"CLASSIFICATION_TYPE":"U","NORAD_CAT_ID":38487,"ELEMENT_SET_NO":999,"REV_AT_EPOCH":67986,"BSTAR":0.0024802785,"MEAN_MOTION_DOT":0.00064261,"MEAN_MOTION_DDOT":0}]
